[
    {
        "CCSDS_OMM_VERS": "3.0",
        "COMMENT": "GENERATED VIA SPACE-TRACK.ORG API",
        "CREATION_DATE": "2025-04-14T03:05:54",
        "ORIGINATOR": "18 SPCS",
        "OBJECT_NAME": "BEIDOU 3M21",
        "OBJECT_ID": "2019-078A",
        "CENTER_NAME": "EARTH",
        "REF_FRAME": "TEME",
        "TIME_SYSTEM": "UTC",
        "MEAN_ELEMENT_THEORY": "SGP4",
        "EPOCH": "2025-04-12T23:37:41.279520",
        "MEAN_MOTION": "1.86232257",
        "ECCENTRICITY": "0.00071090",
        "INCLINATION": "54.3211",
        "RA_OF_ASC_NODE": "314.9193",
        "ARG_OF_PERICENTER": "34.5495",
        "MEAN_ANOMALY": "325.5273",
        "EPHEMERIS_TYPE": "0",
        "CLASSIFICATION_TYPE": "U",
        "NORAD_CAT_ID": "44793",
        "ELEMENT_SET_NO": "999",
        "REV_AT_EPOCH": "3663",
        "BSTAR": "0.00000000000000",
        "MEAN_MOTION_DOT": "-0.00000068",
        "MEAN_MOTION_DDOT": "0.0000000000000",
        "SEMIMAJOR_AXIS": "27906.063",
        "PERIOD": "773.228",
        "APOAPSIS": "21547.766",
        "PERIAPSIS": "21508.090",
        "OBJECT_TYPE": "PAYLOAD",
        "RCS_SIZE": "LARGE",
        "COUNTRY_CODE": "PRC",
        "LAUNCH_DATE": "2019-11-23",
        "SITE": "XSC",
        "DECAY_DATE": null,
        "FILE": "4701263",
        "GP_ID": "285539267",
        "TLE_LINE0": "0 BEIDOU 3M21",
        "TLE_LINE1": "1 44793U 19078A   25102.98450555 -.00000068  00000-0  00000-0 0  9998",
        "TLE_LINE2": "2 44793  54.3211 314.9193 0007109  34.5495 325.5273  1.86232257 36633"
    }
]